MALLIGYONG-1            
1 58400U 23179A   24256.83882252  .00015941  00000+0  72778-3 0  9999
2 58400  97.3891 142.2027 0010072 120.4016 239.8216 15.20634785 45054
